COMMENT,ORIGINATOR,NORAD_CAT_ID,OBJECT_NAME,OBJECT_TYPE,CLASSIFICATION_TYPE,INTLDES,EPOCH,EPOCH_MICROSECONDS,MEAN_MOTION,ECCENTRICITY,INCLINATION,RA_OF_ASC_NODE,ARG_OF_PERICENTER,MEAN_ANOMALY,EPHEMERIS_TYPE,ELEMENT_SET_NO,REV_AT_EPOCH,BSTAR,MEAN_MOTION_DOT,MEAN_MOTION_DDOT,FILE,TLE_LINE0,TLE_LINE1,TLE_LINE2,OBJECT_ID,OBJECT_NUMBER,SEMIMAJOR_AXIS,PERIOD,APOGEE,PERIGEE,DECAYED
"GENERATED VIA SPACETRACK.ORG API","18 SPCS","55092","SPACEBEE-166","PAYLOAD","U","23001CM","2024-04-16 16:49:45","729408","15.41968002","0.0008579","97.4246","173.4984","12.009","348.136","0","999","7164","0.0024699","0.00106517","0","4284483","0 SPACEBEE-166","1 55092U 23001CM  24107.70122372  .00106517  00000-0  24699-2 0  9997","2 55092  97.4246 173.4984 0008579  12.0090 348.1360 15.41968002 71641","2023-001CM","55092","6818.439","93.387","446.153","434.454","0"
"GENERATED VIA SPACETRACK.ORG API","18 SPCS","55092","SPACEBEE-166","PAYLOAD","U","23001CM","2024-04-17 02:10:25","922784","15.42057214","0.0008446","97.4246","173.8944","10.4023","349.7397","0","999","7170","0.0024854","0.00107514","0","4284804","0 SPACEBEE-166","1 55092U 23001CM  24108.09057781  .00107514  00000-0  24854-2 0  9992","2 55092  97.4246 173.8944 0008446  10.4023 349.7397 15.42057214 71701","2023-001CM","55092","6818.176","93.382","445.799","434.282","0"
"GENERATED VIA SPACETRACK.ORG API","18 SPCS","55092","SPACEBEE-166","PAYLOAD","U","23001CM","2024-04-17 03:43:52","433472","15.4207584","0.000844","97.4247","173.9603","10.0521","350.0893","0","999","7171","0.0026498","0.0011481","0","4285817","0 SPACEBEE-166","1 55092U 23001CM  24108.15546798  .00114810  00000-0  26498-2 0  9993","2 55092  97.4247 173.9603 0008440  10.0521 350.0893 15.42075840 71710","2023-001CM","55092","6818.121","93.381","445.740","434.231","0"
"GENERATED VIA SPACETRACK.ORG API","18 SPCS","55092","SPACEBEE-166","PAYLOAD","U","23001CM","2024-04-17 17:44:49","68384","15.42180517","0.0008501","97.4247","174.5552","7.2078","352.929","0","999","7180","0.0020212","0.00087554","0","4286136","0 SPACEBEE-166","1 55092U 23001CM  24108.73945681  .00087554  00000-0  20212-2 0  9993","2 55092  97.4247 174.5552 0008501   7.2078 352.9290 15.42180517 71803","2023-001CM","55092","6817.812","93.374","445.473","433.881","0"
"GENERATED VIA SPACETRACK.ORG API","18 SPCS","55092","SPACEBEE-166","PAYLOAD","U","23001CM","2024-04-17 17:44:49","68384","15.42180517","0.0008501","97.4247","174.5552","7.2078","352.929","0","999","7180","0.0020212","0.00087554","0","4286350","0 SPACEBEE-166","1 55092U 23001CM  24108.73945681  .00087554  00000-0  20212-2 0  9993","2 55092  97.4247 174.5552 0008501   7.2078 352.9290 15.42180517 71803","2023-001CM","55092","6817.812","93.374","445.473","433.881","0"
"GENERATED VIA SPACETRACK.ORG API","18 SPCS","55092","SPACEBEE-166","PAYLOAD","U","23001CM","2024-04-18 03:05:24","755136","15.42260549","0.0008449","97.4248","174.9512","5.7517","354.3826","0","999","7186","0.002231","0.00097025","0","4287342","0 SPACEBEE-166","1 55092U 23001CM  24109.12875874  .00097025  00000-0  22310-2 0  9998","2 55092  97.4248 174.9512 0008449   5.7517 354.3826 15.42260549 71867","2023-001CM","55092","6817.576","93.369","445.201","433.681","0"
"GENERATED VIA SPACETRACK.ORG API","18 SPCS","55092","SPACEBEE-166","PAYLOAD","U","23001CM","2024-04-18 03:05:24","755136","15.42260549","0.0008449","97.4248","174.9512","5.7517","354.3826","0","999","7186","0.002231","0.00097025","0","4287604","0 SPACEBEE-166","1 55092U 23001CM  24109.12875874  .00097025  00000-0  22310-2 0  9998","2 55092  97.4248 174.9512 0008449   5.7517 354.3826 15.42260549 71867","2023-001CM","55092","6817.576","93.369","445.201","433.681","0"
"GENERATED VIA SPACETRACK.ORG API","18 SPCS","55092","SPACEBEE-166","PAYLOAD","U","23001CM","2024-04-18 17:06:15","412032","15.4235906","0.0008452","97.4249","175.546","3.2543","356.8757","0","999","7195","0.0019759","0.00086083","0","4288013","0 SPACEBEE-166","1 55092U 23001CM  24109.71267838  .00086083  00000-0  19759-2 0  9993","2 55092  97.4249 175.5460 0008452   3.2543 356.8757 15.42359060 71950","2023-001CM","55092","6817.286","93.363","444.913","433.389","0"
"GENERATED VIA SPACETRACK.ORG API","18 SPCS","55092","SPACEBEE-166","PAYLOAD","U","23001CM","2024-04-18 17:06:15","412032","15.4235906","0.0008452","97.4249","175.546","3.2543","356.8757","0","999","7195","0.0019759","0.00086083","0","4288150","0 SPACEBEE-166","1 55092U 23001CM  24109.71267838  .00086083  00000-0  19759-2 0  9993","2 55092  97.4249 175.5460 0008452   3.2543 356.8757 15.42359060 71950","2023-001CM","55092","6817.286","93.363","444.913","433.389","0"
"GENERATED VIA SPACETRACK.ORG API","18 SPCS","55092","SPACEBEE-166","PAYLOAD","U","23001CM","2024-04-19 04:00:12","282912","15.42454102","0.0008375","97.4246","176.008","1.3147","358.8121","0","999","7202","0.0021153","0.00092529","0","4288614","0 SPACEBEE-166","1 55092U 23001CM  24110.16680883  .00092529  00000-0  21153-2 0  9996","2 55092  97.4246 176.0080 0008375   1.3147 358.8121 15.42454102 72023","2023-001CM","55092","6817.006","93.358","444.580","433.162","0"
"GENERATED VIA SPACETRACK.ORG API","18 SPCS","55092","SPACEBEE-166","PAYLOAD","U","23001CM","2024-04-19 04:00:12","282912","15.42454102","0.0008375","97.4246","176.008","1.3147","358.8121","0","999","7202","0.0021153","0.00092529","0","4289403","0 SPACEBEE-166","1 55092U 23001CM  24110.16680883  .00092529  00000-0  21153-2 0  9996","2 55092  97.4246 176.0080 0008375   1.3147 358.8121 15.42454102 72023","2023-001CM","55092","6817.006","93.358","444.580","433.162","0"
"GENERATED VIA SPACETRACK.ORG API","18 SPCS","55092","SPACEBEE-166","PAYLOAD","U","23001CM","2024-04-20 03:21:22","388544","15.42713751","0.0008266","97.4243","176.999","356.602","3.517","0","999","7217","0.0028482","0.00126243","0","4290562","0 SPACEBEE-166","1 55092U 23001CM  24111.13984246  .00126243  00000-0  28482-2 0  9997","2 55092  97.4243 176.9990 0008266 356.6020   3.5170 15.42713751 72176","2023-001CM","55092","6816.241","93.342","443.740","432.472","0"
"GENERATED VIA SPACETRACK.ORG API","18 SPCS","55092","SPACEBEE-166","PAYLOAD","U","23001CM","2024-04-20 03:21:22","388544","15.42713751","0.0008266","97.4243","176.999","356.602","3.517","0","999","7217","0.0028482","0.00126243","0","4291469","0 SPACEBEE-166","1 55092U 23001CM  24111.13984246  .00126243  00000-0  28482-2 0  9997","2 55092  97.4243 176.9990 0008266 356.6020   3.5170 15.42713751 72176","2023-001CM","55092","6816.241","93.342","443.740","432.472","0"
"GENERATED VIA SPACETRACK.ORG API","18 SPCS","55092","SPACEBEE-166","PAYLOAD","U","23001CM","2024-04-20 17:21:58","270176","15.4282721","0.0008541","97.4249","177.5945","353.4216","6.6918","0","999","7226","0.0019978","0.00088438","0","4291885","0 SPACEBEE-166","1 55092U 23001CM  24111.72359109  .00088438  00000-0  19978-2 0  9999","2 55092  97.4249 177.5945 0008541 353.4216   6.6918 15.42827210 72267","2023-001CM","55092","6815.907","93.335","443.593","431.950","0"
"GENERATED VIA SPACETRACK.ORG API","18 SPCS","55092","SPACEBEE-166","PAYLOAD","U","23001CM","2024-04-20 17:21:58","270176","15.4282721","0.0008541","97.4249","177.5945","353.4216","6.6918","0","999","7226","0.0019978","0.00088438","0","4292116","0 SPACEBEE-166","1 55092U 23001CM  24111.72359109  .00088438  00000-0  19978-2 0  9999","2 55092  97.4249 177.5945 0008541 353.4216   6.6918 15.42827210 72267","2023-001CM","55092","6815.907","93.335","443.593","431.950","0"
"GENERATED VIA SPACETRACK.ORG API","18 SPCS","55092","SPACEBEE-166","PAYLOAD","U","23001CM","2024-04-21 02:42:19","637856","15.42912877","0.0008357","97.4244","177.9901","352.6059","7.5064","0","999","7232","0.0018208","0.00080743","0","4292385","0 SPACEBEE-166","1 55092U 23001CM  24112.11272729  .00080743  00000-0  18208-2 0  9991","2 55092  97.4244 177.9901 0008357 352.6059   7.5064 15.42912877 72322","2023-001CM","55092","6815.655","93.330","443.215","431.824","0"
"GENERATED VIA SPACETRACK.ORG API","18 SPCS","55092","SPACEBEE-166","PAYLOAD","U","23001CM","2024-04-21 02:42:19","637856","15.42912877","0.0008357","97.4244","177.9901","352.6059","7.5064","0","999","7232","0.0018208","0.00080743","0","4292766","0 SPACEBEE-166","1 55092U 23001CM  24112.11272729  .00080743  00000-0  18208-2 0  9991","2 55092  97.4244 177.9901 0008357 352.6059   7.5064 15.42912877 72322","2023-001CM","55092","6815.655","93.330","443.215","431.824","0"
"GENERATED VIA SPACETRACK.ORG API","18 SPCS","55092","SPACEBEE-166","PAYLOAD","U","23001CM","2024-04-21 16:42:48","258432","15.43047984","0.0008522","97.4242","178.5859","349.7189","10.3883","0","999","7241","0.0024898","0.00111383","0","4293117","0 SPACEBEE-166","1 55092U 23001CM  24112.69639188  .00111383  00000-0  24898-2 0  9997","2 55092  97.4242 178.5859 0008522 349.7189  10.3883 15.43047984 72414","2023-001CM","55092","6815.257","93.322","442.930","431.314","0"
"GENERATED VIA SPACETRACK.ORG API","18 SPCS","55092","SPACEBEE-166","PAYLOAD","U","23001CM","2024-04-21 16:42:48","258432","15.43047984","0.0008522","97.4242","178.5859","349.7189","10.3883","0","999","7241","0.0024898","0.00111383","0","4293451","0 SPACEBEE-166","1 55092U 23001CM  24112.69639188  .00111383  00000-0  24898-2 0  9997","2 55092  97.4242 178.5859 0008522 349.7189  10.3883 15.43047984 72414","2023-001CM","55092","6815.257","93.322","442.930","431.314","0"
"GENERATED VIA SPACETRACK.ORG API","18 SPCS","55092","SPACEBEE-166","PAYLOAD","U","23001CM","2024-04-22 09:49:57","179712","15.43214005","0.0008532","97.424","179.3125","345.7866","14.314","0","999","7252","0.0025225","0.00113507","0","4294469","0 SPACEBEE-166","1 55092U 23001CM  24113.40968958  .00113507  00000-0  25225-2 0  9992","2 55092  97.4240 179.3125 0008532 345.7866  14.3140 15.43214005 72528","2023-001CM","55092","6814.768","93.312","442.447","430.819","0"
